ONEWEB-0461             
1 51649U 22012AD  24216.48637170  .00000107  00000+0  24368-3 0  9996
2 51649  87.9190 141.8092 0002116  77.7006 282.4362 13.17650664123982
ONEWEB-0463             
1 51650U 22012AE  24216.54454218  .00000039  00000+0  68306-4 0  9990
2 51650  87.9191 141.8467 0002145  77.8061 282.3310 13.17649120123779
ONEWEB-0464             
1 51651U 22012AF  24216.39688289  .00000423  00000+0  11763-2 0  9991
2 51651  87.8978 172.0846 0001761  74.1309 286.0012 13.10376629119901
ONEWEB-0468             
1 51652U 22012AG  24216.86167718  .00000597  00000+0  16741-2 0  9996
2 51652  87.8977 171.9856 0002021  78.9629 281.1725 13.10373726121238
ONEWEB-0473             
1 51653U 22012AH  24216.61764798 -.00000004  00000+0 -46857-4 0  9999
2 51653  87.8978 172.0372 0002088  77.6007 282.5354 13.10377247119911
ONEWEB-0474             
1 51654U 22012AJ  24216.83841507 -.00000579  00000+0 -16958-2 0  9992
2 51654  87.8968 171.9861 0002000  73.8183 286.3165 13.10375131121228
ONEWEB-0475             
1 51655U 22012AK  24216.55585136  .00000017  00000+0  99905-5 0  9996
2 51655  87.9192 141.8237 0002042  65.8179 294.3166 13.17650150123792
ONEWEB-0490             
1 54113U 22138A   24216.85925148  .00000066  00000+0  13223-3 0  9992
2 54113  87.9109  80.7260 0001662  78.4122 281.7197 13.19726837 87706
